STARLINK-1273
1 45367U 20019H   26060.63595633  .00026403  00000+0  59054-3 0  9991
2 45367  53.0521 193.0927 0000655 310.6737  49.4212 15.43328631328659
